OBJECT_NAME,OBJECT_ID,EPOCH,MEAN_MOTION,ECCENTRICITY,INCLINATION,RA_OF_ASC_NODE,ARG_OF_PERICENTER,MEAN_ANOMALY,EPHEMERIS_TYPE,CLASSIFICATION_TYPE,NORAD_CAT_ID,ELEMENT_SET_NO,REV_AT_EPOCH,BSTAR,MEAN_MOTION_DOT,MEAN_MOTION_DDOT
DMSP 5D-3 F16 (USA 172),2003-048A,2026-06-06T15:12:54.474912,14.14482099,.00072175,98.9893,181.3922,168.0674,299.3970,0,U,28054,999,16799,.27316808E-4,.7E-7,0
METEOSAT-9 (MSG-2),2005-049B,2026-06-05T20:15:21.955104,1.00267887,.00023261,9.3350,54.2780,40.8445,148.6919,0,U,28912,999,688,0,.135E-5,0
DMSP 5D-3 F17 (USA 191),2006-050A,2026-06-06T15:12:32.062752,14.14991512,.0011326,98.7378,164.4197,86.3675,273.8793,0,U,29522,999,1093,.48840302E-4,.51E-6,0
FENGYUN 3A,2008-026A,2026-06-06T13:05:11.110272,14.19568927,.00091238,98.6881,98.5777,152.1297,208.0370,0,U,32958,999,93389,.59984814E-4,.83E-6,0
GOES 14,2009-033A,2026-06-06T12:49:38.604576,1.00114804,.00020462,1.6618,83.1726,2.1771,149.9332,0,U,35491,999,648,0,-.234E-5,0
DMSP 5D-3 F18 (USA 210),2009-057A,2026-06-06T14:30:17.959392,14.14890969,.00098905,98.9033,138.3968,283.2166,76.7904,0,U,35951,999,85809,.1667493E-3,.277E-5,0
EWS-G2 (GOES 15),2010-008A,2026-06-06T13:46:25.996800,1.00275968,.00055107,1.2479,83.0389,37.0334,45.1036,0,U,36411,999,5953,0,.32E-6,0
COMS 1,2010-032A,2026-06-01T17:43:38.675712,1.00271905,.00010648,4.7700,75.5552,351.7830,216.9341,0,U,36744,999,5093,0,-.334E-5,0
FENGYUN 3B,2010-059A,2026-06-06T15:11:59.591904,14.14840601,.00213639,98.9619,203.6028,214.6150,247.6179,0,U,37214,999,80593,.2836412E-3,.503E-5,0
SUOMI NPP,2011-061A,2026-06-06T15:02:22.912512,14.19515201,.00020929,98.7951,98.5751,29.4859,330.6435,0,U,37849,999,75694,.62134551E-4,.87E-6,0
METEOSAT-10 (MSG-3),2012-035B,2026-06-06T08:20:04.793280,1.00275719,.00017368,4.6453,61.0671,336.9226,341.9840,0,U,38552,999,5074,0,.8E-7,0
METOP-B,2012-049A,2026-06-06T11:45:47.547360,14.21429857,.00028389,98.6508,209.2023,44.2289,315.9115,0,U,38771,999,71174,.71348421E-4,.113E-5,0
INSAT-3D,2013-038B,2026-06-06T12:22:34.180896,1.00268069,.00008063,1.8977,82.6765,350.3630,137.0203,0,U,39216,999,4697,0,-.326E-5,0
FENGYUN 3C,2013-052A,2026-06-06T14:01:08.603040,14.15752672,.00157005,98.4974,131.9462,56.4888,303.7785,0,U,39260,999,65706,.69759263E-4,.96E-6,0
METEOR-M 2,2014-037A,2026-06-06T15:46:46.070688,14.21457428,.00070526,98.5114,133.7696,69.6596,290.5339,0,U,40069,999,61782,-.32694721E-4,-.114E-5,0
HIMAWARI-8,2014-060A,2026-06-06T14:08:27.494304,1.00271556,.00008901,0.0178,47.1068,48.8200,151.8697,0,U,40267,999,4265,0,-.262E-5,0
FENGYUN 2G,2014-090A,2026-06-06T14:21:02.839392,1.00278037,.00033582,5.6120,72.9413,154.4321,342.4719,0,U,40367,999,4189,0,-.29E-5,0
METEOSAT-11 (MSG-4),2015-034A,2026-06-06T06:40:24.948192,1.00276910,.00016661,3.1751,71.1701,4.6698,288.3524,0,U,40732,999,710,0,.76E-6,0
ELEKTRO-L 2,2015-074A,2026-06-05T23:42:55.922400,1.00272284,.00013042,6.6659,70.6588,282.3931,242.6125,0,U,41105,999,3839,0,-.105E-5,0
SENTINEL-3A,2016-011A,2026-06-06T15:02:48.953472,14.26737149,.00013409,98.6250,225.1618,104.7871,255.3459,0,U,41335,999,53655,.70465861E-4,.127E-5,0
INSAT-3DR,2016-054A,2026-06-06T13:49:25.709664,1.00270792,.00103329,0.0785,87.7987,187.0023,261.5469,0,U,41752,999,3571,0,-.63E-6,0
HIMAWARI-9,2016-064A,2026-06-06T14:08:27.494304,1.00273782,.0000913,0.0400,170.8565,298.7134,138.3149,0,U,41836,999,3510,0,-.261E-5,0
GOES 16,2016-071A,2026-06-06T12:58:26.970816,1.00270975,.00005645,0.3126,85.6358,319.1070,300.1665,0,U,41866,999,3499,0,-.78E-6,0
FENGYUN 4A,2016-077A,2026-06-06T14:42:24.319872,1.00275232,.00081848,2.2956,80.3943,151.6035,7.3884,0,U,41882,999,3482,0,-.343E-5,0
CYGFM05,2016-078A,2026-06-05T21:22:31.822176,15.56152582,.00073293,34.9577,335.3662,34.7933,325.3269,0,U,41884,999,52699,.41555861E-3,.30137E-3,0
CYGFM04,2016-078B,2026-06-06T14:23:13.581600,15.60912720,.00060131,34.9328,298.8924,88.3301,271.8113,0,U,41885,999,52734,.43107815E-3,.37478E-3,0
CYGFM02,2016-078C,2026-06-06T13:21:01.939680,15.63799950,.00069932,34.9410,294.0214,90.0241,270.1287,0,U,41886,999,52750,.46033554E-3,.44869E-3,0
CYGFM01,2016-078D,2026-06-06T04:54:59.071104,15.56829800,.0007051,34.9409,334.4321,31.4614,328.6530,0,U,41887,999,52699,.43761816E-3,.32561E-3,0
CYGFM08,2016-078E,2026-06-06T02:51:14.116896,15.59420370,.0008006,34.9440,314.8693,64.7259,295.4294,0,U,41888,999,52724,.43686E-3,.35879E-3,0
CYGFM07,2016-078G,2026-06-06T14:10:50.681568,15.59556141,.00063747,34.9452,300.0816,87.5258,272.6197,0,U,41890,999,52734,.42302686E-3,.34898E-3,0
CYGFM03,2016-078H,2026-06-06T02:43:45.780384,15.59518668,.0005957,34.9409,305.1956,68.6143,291.5217,0,U,41891,999,52724,.45325E-3,.37349E-3,0
