DMSP 5D-3 F16 (USA 172) 
1 28054U 03048A   26157.63396383  .00000007  00000+0  27317-4 0  9996
2 28054  98.9893 181.3922 0007217 168.0674 299.3970 14.14482099167995
METEOSAT-9 (MSG-2)      
1 28912U 05049B   26156.84400411  .00000135  00000+0  00000+0 0  9999
2 28912   9.3350  54.2780 0002326  40.8445 148.6919  1.00267887  6887
DMSP 5D-3 F17 (USA 191) 
1 29522U 06050A   26157.63370443  .00000051  00000+0  48840-4 0  9995
2 29522  98.7378 164.4197 0011326  86.3675 273.8793 14.14991512 10933
FENGYUN 3A              
1 32958U 08026A   26157.54526748  .00000083  00000+0  59985-4 0  9995
2 32958  98.6881  98.5777 0009123 152.1297 208.0370 14.19568927933898
GOES 14                 
1 35491U 09033A   26157.53447459 -.00000234  00000+0  00000+0 0  9997
2 35491   1.6618  83.1726 0002046   2.1771 149.9332  1.00114804  6481
DMSP 5D-3 F18 (USA 210) 
1 35951U 09057A   26157.60437453  .00000277  00000+0  16675-3 0  9990
2 35951  98.9033 138.3968 0009890 283.2166  76.7904 14.14890969858093
EWS-G2 (GOES 15)        
1 36411U 10008A   26157.57391200  .00000032  00000+0  00000+0 0  9995
2 36411   1.2479  83.0389 0005510  37.0334  45.1036  1.00275968 59531
COMS 1                  
1 36744U 10032A   26152.73864208 -.00000334  00000+0  00000+0 0  9993
2 36744   4.7700  75.5552 0001064 351.7830 216.9341  1.00271905 50939
FENGYUN 3B              
1 37214U 10059A   26157.63332861  .00000503  00000+0  28364-3 0  9998
2 37214  98.9619 203.6028 0021363 214.6150 247.6179 14.14840601805936
SUOMI NPP               
1 37849U 11061A   26157.62665408  .00000087  00000+0  62135-4 0  9993
2 37849  98.7951  98.5751 0002092  29.4859 330.6435 14.19515201756941
METEOSAT-10 (MSG-3)     
1 38552U 12035B   26157.34727770  .00000008  00000+0  00000+0 0  9998
2 38552   4.6453  61.0671 0001736 336.9226 341.9840  1.00275719 50743
METOP-B                 
1 38771U 12049A   26157.49013365  .00000113  00000+0  71348-4 0  9995
2 38771  98.6508 209.2023 0002838  44.2289 315.9115 14.21429857711740
INSAT-3D                
1 39216U 13038B   26157.51567339 -.00000326  00000+0  00000+0 0  9996
2 39216   1.8977  82.6765 0000806 350.3630 137.0203  1.00268069 46977
FENGYUN 3C              
1 39260U 13052A   26157.58412735  .00000096  00000+0  69759-4 0  9991
2 39260  98.4974 131.9462 0015700  56.4888 303.7785 14.15752672657068
METEOR-M 2              
1 40069U 14037A   26157.65747767 -.00000114  00000+0 -32695-4 0  9990
2 40069  98.5114 133.7696 0007052  69.6596 290.5339 14.21457428617822
HIMAWARI-8              
1 40267U 14060A   26157.58920711 -.00000262  00000+0  00000+0 0  9993
2 40267   0.0178  47.1068 0000890  48.8200 151.8697  1.00271556 42653
FENGYUN 2G              
1 40367U 14090A   26157.59794953 -.00000290  00000+0  00000+0 0  9996
2 40367   5.6120  72.9413 0003358 154.4321 342.4719  1.00278037 41891
METEOSAT-11 (MSG-4)     
1 40732U 15034A   26157.27806653  .00000076  00000+0  00000+0 0  9998
2 40732   3.1751  71.1701 0001666   4.6698 288.3524  1.00276910  7100
ELEKTRO-L 2             
1 41105U 15074A   26156.98814725 -.00000105  00000+0  00000+0 0  9997
2 41105   6.6659  70.6588 0001304 282.3931 242.6125  1.00272284 38396
SENTINEL-3A             
1 41335U 16011A   26157.62695548  .00000127  00000+0  70466-4 0  9997
2 41335  98.6250 225.1618 0001340 104.7871 255.3459 14.26737149536550
INSAT-3DR               
1 41752U 16054A   26157.57599201 -.00000063  00000+0  00000+0 0  9992
2 41752   0.0785  87.7987 0010332 187.0023 261.5469  1.00270792 35714
HIMAWARI-9              
1 41836U 16064A   26157.58920711 -.00000261  00000+0  00000+0 0  9991
2 41836   0.0400 170.8565 0000913 298.7134 138.3149  1.00273782 35105
GOES 16                 
1 41866U 16071A   26157.54058994 -.00000078  00000+0  00000+0 0  9999
2 41866   0.3126  85.6358 0000564 319.1070 300.1665  1.00270975 34997
FENGYUN 4A              
1 41882U 16077A   26157.61278148 -.00000343  00000+0  00000+0 0  9991
2 41882   2.2956  80.3943 0008184 151.6035   7.3884  1.00275232 34827
CYGFM05                 
1 41884U 16078A   26156.89064609  .00030137  00000+0  41556-3 0  9996
2 41884  34.9577 335.3662 0007329  34.7933 325.3269 15.56152582526991
CYGFM04                 
1 41885U 16078B   26157.59946275  .00037478  00000+0  43108-3 0  9993
2 41885  34.9328 298.8924 0006013  88.3301 271.8113 15.60912720527349
CYGFM02                 
1 41886U 16078C   26157.55627245  .00044869  00000+0  46034-3 0  9996
2 41886  34.9410 294.0214 0006993  90.0241 270.1287 15.63799950527505
CYGFM01                 
1 41887U 16078D   26157.20485036  .00032561  00000+0  43762-3 0  9990
2 41887  34.9409 334.4321 0007051  31.4614 328.6530 15.56829800526993
CYGFM08                 
1 41888U 16078E   26157.11891339  .00035879  00000+0  43686-3 0  9998
2 41888  34.9440 314.8693 0008006  64.7259 295.4294 15.59420370527247
CYGFM07                 
1 41890U 16078G   26157.59086437  .00034898  00000+0  42303-3 0  9993
2 41890  34.9452 300.0816 0006374  87.5258 272.6197 15.59556141527341
CYGFM03                 
1 41891U 16078H   26157.11372431  .00037349  00000+0  45325-3 0  9995
2 41891  34.9409 305.1956 0005957  68.6143 291.5217 15.59518668527248
